[{"OBJECT_NAME":"STARLINK-3131","OBJECT_ID":"2021-104V","EPOCH":"2026-03-09T16:08:15.663264","MEAN_MOTION":15.08838642,"ECCENTRICITY":0.00013262,"INCLINATION":53.2176,"RA_OF_ASC_NODE":229.2092,"ARG_OF_PERICENTER":100.5072,"MEAN_ANOMALY":259.607,"EPHEMERIS_TYPE":0,"CLASSIFICATION_TYPE":"U","NORAD_CAT_ID":49427,"ELEMENT_SET_NO":999,"REV_AT_EPOCH":23863,"BSTAR":4.3278518e-5,"MEAN_MOTION_DOT":4.01e-6,"MEAN_MOTION_DDOT":0},{"OBJECT_NAME":"DMSP 5D-2 F11 DEB","OBJECT_ID":"1991-082AJ","EPOCH":"2026-03-09T06:39:32.486112","MEAN_MOTION":15.08629375,"ECCENTRICITY":0.00070318,"INCLINATION":98.5181,"RA_OF_ASC_NODE":189.4283,"ARG_OF_PERICENTER":237.8685,"MEAN_ANOMALY":152.6153,"EPHEMERIS_TYPE":0,"CLASSIFICATION_TYPE":"U","NORAD_CAT_ID":28321,"ELEMENT_SET_NO":999,"REV_AT_EPOCH":14288,"BSTAR":0.0082823802,"MEAN_MOTION_DOT":0.00131946,"MEAN_MOTION_DDOT":0}]
